NORAD_CAT_ID,OBJECT_NAME,OBJECT_TYPE,EPOCH,MEAN_MOTION,ECCENTRICITY,INCLINATION,RA_OF_ASC_NODE,ARG_OF_PERICENTER,MEAN_ANOMALY,BSTAR,MEAN_MOTION_DOT,MEAN_MOTION_DDOT,TLE_LINE0,TLE_LINE1,TLE_LINE2,SEMIMAJOR_AXIS,PERIOD,APOGEE,PERIGEE,DECAYED
52682.0,STARLINK-4017,PAYLOAD,2022-12-09 15:50:23,15.08796563,0.0002403,53.219,68.4111,13.6771,346.4286,-0.0003419,-5.719e-05,0.0,0 STARLINK-4017,1 52682U 22053AC  22343.65999440 -.00005719  00000-0 -34190-3 0  9999,2 52682  53.2190  68.4111 0002403  13.6771 346.4286 15.08796563 31692,6918.013000000001,95.44,541.5409999999998,538.216,0.0
52682.0,STARLINK-4017,PAYLOAD,2022-12-10 10:55:00,15.08797408,0.0001716,53.22,64.8418,346.3976,13.697,0.00046725,7.148e-05,0.0,0 STARLINK-4017,1 52682U 22053AC  22344.45486534  .00007148  00000-0  46725-3 0  9996,2 52682  53.2200  64.8418 0001716 346.3976  13.6970 15.08797408 31819,6918.011,95.44,541.063,538.688,0.0
52682.0,STARLINK-4017,PAYLOAD,2022-12-10 12:30:23,15.08832147,0.0002372,53.2197,64.5409,39.7755,320.3411,-0.00012539,-2.283e-05,0.0,0 STARLINK-4017,1 52682U 22053AC  22344.52110138 -.00002283  00000-0 -12539-3 0  9991,2 52682  53.2197  64.5409 0002372  39.7755 320.3411 15.08832147 32233,6917.904,95.438,541.41,538.128,0.0
52682.0,STARLINK-4017,PAYLOAD,2022-12-11 04:24:13,15.08822344,0.0002312,53.219,61.5662,37.2789,322.8363,0.00029905,4.472e-05,0.0,0 STARLINK-4017,1 52682U 22053AC  22345.18349437  .00004472  00000-0  29905-3 0  9995,2 52682  53.2190  61.5662 0002312  37.2789 322.8363 15.08822344 31924,6917.934,95.439,541.399,538.2,0.0
52682.0,STARLINK-4017,PAYLOAD,2022-12-11 10:45:46,15.08821389,0.0002307,53.2195,60.3769,30.339,329.7735,0.00028487,4.246e-05,0.0,0 STARLINK-4017,1 52682U 22053AC  22345.44845910  .00004246  00000-0  28487-3 0  9994,2 52682  53.2195  60.3769 0002307  30.3390 329.7735 15.08821389 32377,6917.937,95.439,541.398,538.206,0.0
52682.0,STARLINK-4017,PAYLOAD,2022-12-12 09:01:10,15.08842068,0.0002393,53.2189,56.2147,31.5687,328.5448,0.00026233,3.889e-05,0.0,0 STARLINK-4017,1 52682U 22053AC  22346.37581922  .00003889  00000-0  26233-3 0  9996,2 52682  53.2189  56.2147 0002393  31.5687 328.5448 15.08842068 32107,6917.874,95.437,541.395,538.0840000000002,0.0
52682.0,STARLINK-4017,PAYLOAD,2022-12-12 12:11:57,15.08843529,0.0002502,53.2189,55.6203,34.0647,326.0505,0.00028148,4.195e-05,0.0,0 STARLINK-4017,1 52682U 22053AC  22346.50829877  .00004195  00000-0  28148-3 0  9993,2 52682  53.2189  55.6203 0002502  34.0647 326.0505 15.08843529 32536,6917.87,95.437,541.465,538.004,0.0
52682.0,STARLINK-4017,PAYLOAD,2022-12-13 04:05:48,15.0884114,0.0002464,53.2185,52.6469,32.8196,327.2949,7.2009e-05,8.58e-06,0.0,0 STARLINK-4017,1 52682U 22053AC  22347.17069926  .00000858  00000-0  72009-4 0  9996,2 52682  53.2185  52.6469 0002464  32.8196 327.2949 15.08841140 32223,6917.877,95.437,541.446,538.0369999999998,0.0
52682.0,STARLINK-4017,PAYLOAD,2022-12-13 10:27:21,15.08839393,0.0002454,53.2183,51.4576,33.0136,327.1009,5.469e-05,5.82e-06,0.0,0 STARLINK-4017,1 52682U 22053AC  22347.43566010  .00000582  00000-0  54690-4 0  9991,2 52682  53.2183  51.4576 0002454  33.0136 327.1009 15.08839393 32675,6917.882,95.438,541.445,538.05,0.0
52682.0,STARLINK-4017,PAYLOAD,2022-12-14 10:18:07,15.08851759,0.0002532,53.2195,46.9979,25.7664,334.3454,0.00010062,1.314e-05,0.0,0 STARLINK-4017,1 52682U 22053AC  22348.42925253  .00001314  00000-0  10062-3 0  9997,2 52682  53.2195  46.9979 0002532  25.7664 334.3454 15.08851759 32826,6917.844,95.437,541.461,537.9580000000002,0.0
52682.0,STARLINK-4017,PAYLOAD,2022-12-14 16:39:39,15.08852211,0.0002485,53.2197,45.8093,29.8419,330.2714,8.8803e-05,1.126e-05,0.0,0 STARLINK-4017,1 52682U 22053AC  22348.69421130  .00001126  00000-0  88803-4 0  9991,2 52682  53.2197  45.8093 0002485  29.8419 330.2714 15.08852211 32450,6917.843000000003,95.437,541.427,537.989,0.0
52682.0,STARLINK-4017,PAYLOAD,2022-12-15 03:47:22,15.08837518,0.0002387,53.219,43.7272,28.8782,331.2342,0.00015605,2.196e-05,0.0,0 STARLINK-4017,1 52682U 22053AC  22349.15789796  .00002196  00000-0  15605-3 0  9995,2 52682  53.2190  43.7272 0002387  28.8782 331.2342 15.08837518 32521,6917.888000000001,95.438,541.404,538.102,0.0
52682.0,STARLINK-4017,PAYLOAD,2022-12-15 13:19:41,15.08839925,0.0002337,53.2203,41.9423,34.1543,325.9599,5.2848e-05,5.53e-06,0.0,0 STARLINK-4017,1 52682U 22053AC  22349.55533816  .00000553  00000-0  52848-4 0  9995,2 52682  53.2203  41.9423 0002337  34.1543 325.9599 15.08839925 32993,6917.880999999999,95.438,541.362,538.129,0.0
52682.0,STARLINK-4017,PAYLOAD,2022-12-16 09:59:41,15.08847628,0.0002443,53.2196,38.0771,30.7051,329.4084,1.3096e-05,-8e-07,0.0,0 STARLINK-4017,1 52682U 22053AC  22350.41645420 -.00000080  00000-0  13096-4 0  9995,2 52682  53.2196  38.0771 0002443  30.7051 329.4084 15.08847628 32718,6917.857,95.437,541.4119999999998,538.0319999999998,0.0
52682.0,STARLINK-4017,PAYLOAD,2022-12-16 13:10:27,15.08850183,0.0002497,53.2193,37.4822,30.0066,330.1069,-5.5821e-06,-3.77e-06,0.0,0 STARLINK-4017,1 52682U 22053AC  22350.54893225 -.00000377  00000-0 -55821-5 0  9990,2 52682  53.2193  37.4822 0002497  30.0066 330.1069 15.08850183 33143,6917.849,95.437,541.442,537.987,0.0
52682.0,STARLINK-4017,PAYLOAD,2022-12-16 14:45:51,15.08836375,0.0002743,53.2195,37.1854,25.9264,334.1865,-4.9333e-05,-1.074e-05,0.0,0 STARLINK-4017,1 52682U 22053AC  22350.61518269 -.00001074  00000-0 -49333-4 0  9995,2 52682  53.2195  37.1854 0002743  25.9264 334.1865 15.08836375 32744,6917.891,95.438,541.654,537.859,0.0
52682.0,STARLINK-4017,PAYLOAD,2022-12-17 09:50:29,15.08833666,0.0002597,53.2189,33.617,24.1676,335.9438,-5.4299e-06,-3.75e-06,0.0,0 STARLINK-4017,1 52682U 22053AC  22351.41006502 -.00000375  00000-0 -54299-5 0  9997,2 52682  53.2189  33.6170 0002597  24.1676 335.9438 15.08833666 33278,6917.9,95.438,541.561,537.9680000000002,0.0
52682.0,STARLINK-4017,PAYLOAD,2022-12-17 13:01:15,15.08835791,0.0002597,53.2189,33.0221,24.5917,335.5199,1.1262e-05,-1.09e-06,0.0,0 STARLINK-4017,1 52682U 22053AC  22351.54254377 -.00000109  00000-0  11262-4 0  9992,2 52682  53.2189  33.0221 0002597  24.5917 335.5199 15.08835791 33294,6917.893,95.438,541.555,537.962,0.0
52682.0,STARLINK-4017,PAYLOAD,2022-12-18 03:19:43,15.0883994,0.0002354,53.219,30.3448,23.1883,336.9215,8.4366e-05,1.055e-05,0.0,0 STARLINK-4017,1 52682U 22053AC  22352.13869938  .00001055  00000-0  84366-4 0  9998,2 52682  53.2190  30.3448 0002354  23.1883 336.9215 15.08839940 32973,6917.880999999999,95.438,541.374,538.117,0.0
52682.0,STARLINK-4017,PAYLOAD,2022-12-18 09:41:16,15.088344400000002,0.000246,53.2194,29.1557,19.3378,340.7707,6.116800000000001e-05,6.85e-06,0.0,0 STARLINK-4017,1 52682U 22053AC  22352.40366454  .00000685  00000-0  61168-4 0  9996,2 52682  53.2194  29.1557 0002460  19.3378 340.7707 15.08834440 33013,6917.897,95.438,541.464,538.061,0.0
52682.0,STARLINK-4017,PAYLOAD,2022-12-18 19:13:35,15.08830502,0.000269,53.2196,27.3716,25.3229,334.7895,-5.2693e-05,-1.127e-05,0.0,0 STARLINK-4017,1 52682U 22053AC  22352.80111104 -.00001127  00000-0 -52693-4 0  9997,2 52682  53.2196  27.3716 0002690  25.3229 334.7895 15.08830502 33486,6917.909000000002,95.438,541.635,537.914,0.0
52682.0,STARLINK-4017,PAYLOAD,2022-12-19 09:32:04,15.08831517,0.0002523,53.2198,24.6961,25.1391,334.9723,8.9774e-05,1.14e-05,0.0,0 STARLINK-4017,1 52682U 22053AC  22353.39727083  .00001140  00000-0  89774-4 0  9994,2 52682  53.2198  24.6961 0002523  25.1391 334.9723 15.08831517 33572,6917.906,95.438,541.5169999999998,538.026,0.0
52682.0,STARLINK-4017,PAYLOAD,2022-12-19 19:04:22,15.08836942,0.0002694,53.2199,22.9122,26.351,333.7618,7.0196e-05,8.29e-06,0.0,0 STARLINK-4017,1 52682U 22053AC  22353.79470955  .00000829  00000-0  70196-4 0  9992,2 52682  53.2199  22.9122 0002694  26.3510 333.7618 15.08836942 33632,6917.89,95.438,541.618,537.891,0.0
52682.0,STARLINK-4017,PAYLOAD,2022-12-20 03:01:17,15.08844698,0.0002687,53.2187,21.4244,23.3169,336.7944,0.00016664,2.365e-05,0.0,0 STARLINK-4017,1 52682U 22053AC  22354.12590140  .00002365  00000-0  16664-3 0  9995,2 52682  53.2187  21.4244 0002687  23.3169 336.7944 15.08844698 33279,6917.866,95.437,541.59,537.872,0.0
52682.0,STARLINK-4017,PAYLOAD,2022-12-20 09:22:49,15.08857514,0.000277,53.2183,20.2353,25.2495,334.8633,0.00036904,5.593e-05,0.0,0 STARLINK-4017,1 52682U 22053AC  22354.39085590  .00005593  00000-0  36904-3 0  9997,2 52682  53.2183  20.2353 0002770  25.2495 334.8633 15.08857514 33724,6917.8269999999975,95.436,541.6080000000002,537.776,0.0
52682.0,STARLINK-4017,PAYLOAD,2022-12-21 01:16:41,15.08841881,0.0002697,53.219,17.2625,27.8692,332.2445,0.00015542,2.186e-05,0.0,0 STARLINK-4017,1 52682U 22053AC  22355.05326359  .00002186  00000-0  15542-3 0  9992,2 52682  53.2190  17.2625 0002697  27.8692 332.2445 15.08841881 33414,6917.875,95.437,541.605,537.874,0.0
52682.0,STARLINK-4017,PAYLOAD,2022-12-21 09:13:37,15.08838876,0.0002425,53.2187,15.7729,26.893,333.2188,4.345899999999999e-06,-2.19e-06,0.0,0 STARLINK-4017,1 52682U 22053AC  22355.38446512 -.00000219  00000-0  43459-5 0  9998,2 52682  53.2187  15.7729 0002425  26.8930 333.2188 15.08838876 33876,6917.884,95.438,541.4259999999998,538.071,0.0
52682.0,STARLINK-4017,PAYLOAD,2022-12-21 13:59:47,15.0883001,0.0003233,53.2193,14.8848,23.8212,336.2929,-8.4849e-05,-1.639e-05,0.0,0 STARLINK-4017,1 52682U 22053AC  22355.58319261 -.00001639  00000-0 -84849-4 0  9995,2 52682  53.2193  14.8848 0003233  23.8212 336.2929 15.08830010 33499,6917.911,95.438,542.012,537.539,0.0
52682.0,STARLINK-4017,PAYLOAD,2022-12-22 09:04:25,15.08843061,0.0002751,53.2185,11.315,25.3448,334.7679,2.7871e-05,1.55e-06,0.0,0 STARLINK-4017,1 52682U 22053AC  22356.37806869  .00000155  00000-0  27871-4 0  9990,2 52682  53.2185  11.3150 0002751  25.3448 334.7679 15.08843061 33619,6917.871,95.437,541.639,537.8330000000002,0.0
